{
    "CCSDS_OMM_VERS": "3.0",
    "COMMENT": "GENERATED VIA SPACE-TRACK.ORG API",
    "CREATION_DATE": "2025-05-22T17:14:14",
    "ORIGINATOR": "18 SPCS",
    "OBJECT_NAME": "COSMOS 2474 (GLONASS)",
    "OBJECT_ID": "2011-055A",
    "CENTER_NAME": "EARTH",
    "REF_FRAME": "TEME",
    "TIME_SYSTEM": "UTC",
    "MEAN_ELEMENT_THEORY": "SGP4",
    "EPOCH": "2025-05-22T08:35:18.721248",
    "MEAN_MOTION": "2.13101179",
    "ECCENTRICITY": "0.00107930",
    "INCLINATION": "65.0706",
    "RA_OF_ASC_NODE": "86.0904",
    "ARG_OF_PERICENTER": "249.2393",
    "MEAN_ANOMALY": "277.2888",
    "EPHEMERIS_TYPE": "0",
    "CLASSIFICATION_TYPE": "U",
    "NORAD_CAT_ID": "37829",
    "ELEMENT_SET_NO": "999",
    "REV_AT_EPOCH": "10612",
    "BSTAR": "0.00000000000000",
    "MEAN_MOTION_DOT": "0.00000014",
    "MEAN_MOTION_DDOT": "0.0000000000000",
    "SEMIMAJOR_AXIS": "25508.090",
    "PERIOD": "675.735",
    "APOAPSIS": "19157.486",
    "PERIAPSIS": "19102.424",
    "OBJECT_TYPE": "PAYLOAD",
    "RCS_SIZE": "LARGE",
    "COUNTRY_CODE": "CIS",
    "LAUNCH_DATE": "2011-10-02",
    "SITE": "PKMTR",
    "DECAY_DATE": null,
    "FILE": "4736220",
    "GP_ID": "288141792",
    "TLE_LINE0": "0 COSMOS 2474 (GLONASS)",
    "TLE_LINE1": "1 37829U 11055A   25142.35785557  .00000014  00000-0  00000-0 0  9995",
    "TLE_LINE2": "2 37829  65.0706  86.0904 0010793 249.2393 277.2888  2.13101179106121"
}